HULIANWANG DIGUI-97     
1 66413U 25258B   26061.93537305 -.00000056  00000+0  14662-3 0  9995
2 66413  50.0021 316.9735 0000378  90.9266 269.1650 13.29332038 15597
HULIANWANG DIGUI-98     
1 66414U 25258C   26061.92699606 -.00000050  00000+0  15889-3 0  9994
2 66414  50.0058 316.9712 0000428 104.3419 255.7501 13.29333605 15596
HULIANWANG DIGUI-99     
1 66415U 25258D   26061.89360558 -.00000053  00000+0  15278-3 0  9997
2 66415  50.0056 316.7919 0000306  82.3606 277.7301 13.29331165 15580
HULIANWANG DIGUI-100    
1 66416U 25258E   26061.91864866 -.00000045  00000+0  17091-3 0  9998
2 66416  50.0060 316.9301 0000288  79.1186 280.9719 13.29334134 15600
HULIANWANG DIGUI-101    
1 66417U 25258F   26061.91030596 -.00000049  00000+0  16135-3 0  9996
2 66417  50.0010 316.8291 0000317  74.3284 285.7623 13.29332303 15605
HULIANWANG DIGUI-102    
1 66418U 25258G   26061.96039766 -.00000059  00000+0  13931-3 0  9992
2 66418  50.0024 316.4395 0000329  97.6786 262.4124 13.29334291 15606
HULIANWANG DIGUI-103    
1 66419U 25258H   26061.95206317 -.00000058  00000+0  14337-3 0  9990
2 66419  50.0017 316.3883 0000261  75.0892 285.0009 13.29333318 15605
HULIANWANG DIGUI-104    
1 66420U 25258J   26061.94372315 -.00000057  00000+0  14367-3 0  9995
2 66420  50.0034 316.3672 0000358 101.6707 258.4206 13.29332704 15599
HULIANWANG DIGUI-105    
1 66915U 25285A   26061.72208454 -.00000078  00000+0  99751-4 0  9996
2 66915  50.0042 168.0525 0000036 307.6487  52.4382 13.29331639 11894
HULIANWANG DIGUI-106    
1 66916U 25285B   26061.78897486 -.00606226  00000+0 -13603+1 0  9998
2 66916  50.0038 167.7521 0006396  24.0977 336.0193 13.29372523 11901
HULIANWANG DIGUI-107    
1 66917U 25285C   26061.85574067 -.00000084  00000+0  85231-4 0  9993
2 66917  50.0021 167.4092 0000021  14.9046 345.1827 13.29331064 11919
HULIANWANG DIGUI-108    
1 66918U 25285D   26061.69702149 -.00000107  00000+0  37556-4 0  9993
2 66918  50.0041 167.9214 0000029 359.8729   0.2143 13.29331960 11892
HULIANWANG DIGUI-109    
1 66919U 25285E   26061.83902638 -.00000083  00000+0  88115-4 0  9995
2 66919  50.0066 167.3581 0000037 320.5600  39.5270 13.29332359 11926
HULIANWANG DIGUI-110    
1 66920U 25285F   26061.83067760 -.00000069  00000+0  11949-3 0  9999
2 66920  50.0103 167.3396 0000096 351.3290   8.7581 13.29331614 11911
HULIANWANG DIGUI-111    
1 66921U 25285G   26061.82232236 -.00000084  00000+0  85462-4 0  9990
2 66921  50.0114 167.3093 0000053 340.0069  20.0801 13.29331658 11910
HULIANWANG DIGUI-112    
1 66922U 25285H   26061.81397091 -.00000079  00000+0  96089-4 0  9992
2 66922  50.0077 167.2389 0000076 308.5327  51.5538 13.29333601 11913
