[{"OBJECT_NAME":"HULIANWANG DIGUI-97","OBJECT_ID":"2025-258B","EPOCH":"2026-03-02T22:26:56.231520","MEAN_MOTION":13.29332038,"ECCENTRICITY":3.787e-5,"INCLINATION":50.0021,"RA_OF_ASC_NODE":316.9735,"ARG_OF_PERICENTER":90.9266,"MEAN_ANOMALY":269.165,"EPHEMERIS_TYPE":0,"CLASSIFICATION_TYPE":"U","NORAD_CAT_ID":66413,"ELEMENT_SET_NO":999,"REV_AT_EPOCH":1559,"BSTAR":0.0001466209,"MEAN_MOTION_DOT":-5.6e-7,"MEAN_MOTION_DDOT":0},{"OBJECT_NAME":"HULIANWANG DIGUI-98","OBJECT_ID":"2025-258C","EPOCH":"2026-03-02T22:14:52.459584","MEAN_MOTION":13.29333605,"ECCENTRICITY":4.287e-5,"INCLINATION":50.0058,"RA_OF_ASC_NODE":316.9712,"ARG_OF_PERICENTER":104.3419,"MEAN_ANOMALY":255.7501,"EPHEMERIS_TYPE":0,"CLASSIFICATION_TYPE":"U","NORAD_CAT_ID":66414,"ELEMENT_SET_NO":999,"REV_AT_EPOCH":1559,"BSTAR":0.00015889453,"MEAN_MOTION_DOT":-5.0e-7,"MEAN_MOTION_DDOT":0},{"OBJECT_NAME":"HULIANWANG DIGUI-99","OBJECT_ID":"2025-258D","EPOCH":"2026-03-02T21:26:47.522112","MEAN_MOTION":13.29331165,"ECCENTRICITY":3.06e-5,"INCLINATION":50.0056,"RA_OF_ASC_NODE":316.7919,"ARG_OF_PERICENTER":82.3606,"MEAN_ANOMALY":277.7301,"EPHEMERIS_TYPE":0,"CLASSIFICATION_TYPE":"U","NORAD_CAT_ID":66415,"ELEMENT_SET_NO":999,"REV_AT_EPOCH":1558,"BSTAR":0.00015277636,"MEAN_MOTION_DOT":-5.3e-7,"MEAN_MOTION_DDOT":0},{"OBJECT_NAME":"HULIANWANG DIGUI-100","OBJECT_ID":"2025-258E","EPOCH":"2026-03-02T22:02:51.244224","MEAN_MOTION":13.29334134,"ECCENTRICITY":2.881e-5,"INCLINATION":50.006,"RA_OF_ASC_NODE":316.9301,"ARG_OF_PERICENTER":79.1186,"MEAN_ANOMALY":280.9719,"EPHEMERIS_TYPE":0,"CLASSIFICATION_TYPE":"U","NORAD_CAT_ID":66416,"ELEMENT_SET_NO":999,"REV_AT_EPOCH":1560,"BSTAR":0.00017090847,"MEAN_MOTION_DOT":-4.5e-7,"MEAN_MOTION_DDOT":0},{"OBJECT_NAME":"HULIANWANG DIGUI-101","OBJECT_ID":"2025-258F","EPOCH":"2026-03-02T21:50:50.434944","MEAN_MOTION":13.29332303,"ECCENTRICITY":3.178e-5,"INCLINATION":50.001,"RA_OF_ASC_NODE":316.8291,"ARG_OF_PERICENTER":74.3284,"MEAN_ANOMALY":285.7623,"EPHEMERIS_TYPE":0,"CLASSIFICATION_TYPE":"U","NORAD_CAT_ID":66417,"ELEMENT_SET_NO":999,"REV_AT_EPOCH":1560,"BSTAR":0.00016135229,"MEAN_MOTION_DOT":-4.9e-7,"MEAN_MOTION_DDOT":0},{"OBJECT_NAME":"HULIANWANG DIGUI-102","OBJECT_ID":"2025-258G","EPOCH":"2026-03-02T23:02:58.357824","MEAN_MOTION":13.29334291,"ECCENTRICITY":3.298e-5,"INCLINATION":50.0024,"RA_OF_ASC_NODE":316.4395,"ARG_OF_PERICENTER":97.6786,"MEAN_ANOMALY":262.4124,"EPHEMERIS_TYPE":0,"CLASSIFICATION_TYPE":"U","NORAD_CAT_ID":66418,"ELEMENT_SET_NO":999,"REV_AT_EPOCH":1560,"BSTAR":0.00013931347,"MEAN_MOTION_DOT":-5.9e-7,"MEAN_MOTION_DDOT":0},{"OBJECT_NAME":"HULIANWANG DIGUI-103","OBJECT_ID":"2025-258H","EPOCH":"2026-03-02T22:50:58.257888","MEAN_MOTION":13.29333318,"ECCENTRICITY":2.61e-5,"INCLINATION":50.0017,"RA_OF_ASC_NODE":316.3883,"ARG_OF_PERICENTER":75.0892,"MEAN_ANOMALY":285.0009,"EPHEMERIS_TYPE":0,"CLASSIFICATION_TYPE":"U","NORAD_CAT_ID":66419,"ELEMENT_SET_NO":999,"REV_AT_EPOCH":1560,"BSTAR":0.00014336549,"MEAN_MOTION_DOT":-5.8e-7,"MEAN_MOTION_DDOT":0},{"OBJECT_NAME":"HULIANWANG DIGUI-104","OBJECT_ID":"2025-258J","EPOCH":"2026-03-02T22:38:57.680160","MEAN_MOTION":13.29332704,"ECCENTRICITY":3.584e-5,"INCLINATION":50.0034,"RA_OF_ASC_NODE":316.3672,"ARG_OF_PERICENTER":101.6707,"MEAN_ANOMALY":258.4206,"EPHEMERIS_TYPE":0,"CLASSIFICATION_TYPE":"U","NORAD_CAT_ID":66420,"ELEMENT_SET_NO":999,"REV_AT_EPOCH":1559,"BSTAR":0.00014366534,"MEAN_MOTION_DOT":-5.7e-7,"MEAN_MOTION_DDOT":0},{"OBJECT_NAME":"HULIANWANG DIGUI-105","OBJECT_ID":"2025-285A","EPOCH":"2026-03-02T17:19:48.104256","MEAN_MOTION":13.29331639,"ECCENTRICITY":3.65e-6,"INCLINATION":50.0042,"RA_OF_ASC_NODE":168.0525,"ARG_OF_PERICENTER":307.6487,"MEAN_ANOMALY":52.4382,"EPHEMERIS_TYPE":0,"CLASSIFICATION_TYPE":"U","NORAD_CAT_ID":66915,"ELEMENT_SET_NO":999,"REV_AT_EPOCH":1189,"BSTAR":9.9751114e-5,"MEAN_MOTION_DOT":-7.8e-7,"MEAN_MOTION_DDOT":0},{"OBJECT_NAME":"HULIANWANG DIGUI-106","OBJECT_ID":"2025-285B","EPOCH":"2026-03-02T18:56:07.427904","MEAN_MOTION":13.29372523,"ECCENTRICITY":0.00063966,"INCLINATION":50.0038,"RA_OF_ASC_NODE":167.7521,"ARG_OF_PERICENTER":24.0977,"MEAN_ANOMALY":336.0193,"EPHEMERIS_TYPE":0,"CLASSIFICATION_TYPE":"U","NORAD_CAT_ID":66916,"ELEMENT_SET_NO":999,"REV_AT_EPOCH":1190,"BSTAR":-1.3603132,"MEAN_MOTION_DOT":-0.00606226,"MEAN_MOTION_DDOT":0},{"OBJECT_NAME":"HULIANWANG DIGUI-107","OBJECT_ID":"2025-285C","EPOCH":"2026-03-02T20:32:15.993888","MEAN_MOTION":13.29331064,"ECCENTRICITY":2.16e-6,"INCLINATION":50.0021,"RA_OF_ASC_NODE":167.4092,"ARG_OF_PERICENTER":14.9046,"MEAN_ANOMALY":345.1827,"EPHEMERIS_TYPE":0,"CLASSIFICATION_TYPE":"U","NORAD_CAT_ID":66917,"ELEMENT_SET_NO":999,"REV_AT_EPOCH":1191,"BSTAR":8.5231282e-5,"MEAN_MOTION_DOT":-8.4e-7,"MEAN_MOTION_DDOT":0},{"OBJECT_NAME":"HULIANWANG DIGUI-108","OBJECT_ID":"2025-285D","EPOCH":"2026-03-02T16:43:42.656736","MEAN_MOTION":13.2933196,"ECCENTRICITY":2.98e-6,"INCLINATION":50.0041,"RA_OF_ASC_NODE":167.9214,"ARG_OF_PERICENTER":359.8729,"MEAN_ANOMALY":0.2143,"EPHEMERIS_TYPE":0,"CLASSIFICATION_TYPE":"U","NORAD_CAT_ID":66918,"ELEMENT_SET_NO":999,"REV_AT_EPOCH":1189,"BSTAR":3.7556428e-5,"MEAN_MOTION_DOT":-1.07e-6,"MEAN_MOTION_DDOT":0},{"OBJECT_NAME":"HULIANWANG DIGUI-109","OBJECT_ID":"2025-285E","EPOCH":"2026-03-02T20:08:11.879232","MEAN_MOTION":13.29332359,"ECCENTRICITY":3.77e-6,"INCLINATION":50.0066,"RA_OF_ASC_NODE":167.3581,"ARG_OF_PERICENTER":320.56,"MEAN_ANOMALY":39.527,"EPHEMERIS_TYPE":0,"CLASSIFICATION_TYPE":"U","NORAD_CAT_ID":66919,"ELEMENT_SET_NO":999,"REV_AT_EPOCH":1192,"BSTAR":8.8115356e-5,"MEAN_MOTION_DOT":-8.3e-7,"MEAN_MOTION_DDOT":0},{"OBJECT_NAME":"HULIANWANG DIGUI-110","OBJECT_ID":"2025-285F","EPOCH":"2026-03-02T19:56:10.544640","MEAN_MOTION":13.29331614,"ECCENTRICITY":9.6e-6,"INCLINATION":50.0103,"RA_OF_ASC_NODE":167.3396,"ARG_OF_PERICENTER":351.329,"MEAN_ANOMALY":8.7581,"EPHEMERIS_TYPE":0,"CLASSIFICATION_TYPE":"U","NORAD_CAT_ID":66920,"ELEMENT_SET_NO":999,"REV_AT_EPOCH":1191,"BSTAR":0.00011948716,"MEAN_MOTION_DOT":-6.9e-7,"MEAN_MOTION_DDOT":0},{"OBJECT_NAME":"HULIANWANG DIGUI-111","OBJECT_ID":"2025-285G","EPOCH":"2026-03-02T19:44:08.651904","MEAN_MOTION":13.29331658,"ECCENTRICITY":5.34e-6,"INCLINATION":50.0114,"RA_OF_ASC_NODE":167.3093,"ARG_OF_PERICENTER":340.0069,"MEAN_ANOMALY":20.0801,"EPHEMERIS_TYPE":0,"CLASSIFICATION_TYPE":"U","NORAD_CAT_ID":66921,"ELEMENT_SET_NO":999,"REV_AT_EPOCH":1191,"BSTAR":8.5461541e-5,"MEAN_MOTION_DOT":-8.4e-7,"MEAN_MOTION_DDOT":0},{"OBJECT_NAME":"HULIANWANG DIGUI-112","OBJECT_ID":"2025-285H","EPOCH":"2026-03-02T19:32:07.086624","MEAN_MOTION":13.29333601,"ECCENTRICITY":7.63e-6,"INCLINATION":50.0077,"RA_OF_ASC_NODE":167.2389,"ARG_OF_PERICENTER":308.5327,"MEAN_ANOMALY":51.5538,"EPHEMERIS_TYPE":0,"CLASSIFICATION_TYPE":"U","NORAD_CAT_ID":66922,"ELEMENT_SET_NO":999,"REV_AT_EPOCH":1191,"BSTAR":9.6088756e-5,"MEAN_MOTION_DOT":-7.9e-7,"MEAN_MOTION_DDOT":0}]
